SHIYAN-1 (SY-1)         
1 28220U 04012A   26198.77385515  .00007142  00000+0  21639-3 0  9995
2 28220  97.8682 278.8456 0004133 262.8282  97.2489 15.34492099215785
SINAH 1                 
1 28893U 05043D   26198.94331919  .00000125  00000+0  33128-4 0  9995
2 28893  98.2898 333.4527 0014588 174.9648 185.1704 14.64176462105023
SKYSAT-A                
1 39418U 13066C   26198.81101244  .00001429  00000+0  83912-4 0  9990
2 39418  97.3800 247.2323 0020703 203.9624 156.0646 15.13122952693114
SKYSAT-B                
1 40072U 14037D   26198.85478173  .00000585  00000+0  70239-4 0  9999
2 40072  98.3855 159.5727 0005780 164.7180 195.4211 14.88095356650526
SKYSAT-C1               
1 41601U 16040C   26198.04294710  .00005058  00000+0  14290-3 0  9992
2 41601  96.9547 228.1510 0000261 236.3178 123.8043 15.36766876562450
SENTINEL-5P             
1 42969U 17064A   26198.86323805  .00000009  00000+0  25401-4 0  9993
2 42969  98.7929 140.7776 0001161  94.1328 265.9981 14.19523493453917
SKYSAT-C10              
1 42988U 17068B   26198.93301374  .00005959  00000+0  17711-3 0  9996
2 42988  97.4547 336.0968 0001524 111.3925 248.7481 15.35149496487075
SENTINEL-3B             
1 43437U 18039A   26198.83645340  .00000049  00000+0  38405-4 0  9997
2 43437  98.6235 265.9266 0001210 119.6038 240.5263 14.26736832428495
SENTINEL-6A             
1 46984U 20086A   26198.92547703 -.00000047  00000+0  62706-4 0  9996
2 46984  66.0412  71.2096 0007775 269.6881  90.3243 12.80930208264267
SENTINEL-6B             
1 66514U 25264A   26198.92582496 -.00000045  00000+0  69349-4 0  9996
2 66514  66.0411  71.3350 0007834 268.5138  91.4980 12.80930218 31106
